{"type":"FeatureCollection","crs":{"type":"name","properties":{"name":"urn:ogc:def:crs:OGC:1.3:CRS84"}},"features":[{"type":"Feature","properties":{"featurecla":"Admin-1 states provinces","name":"Anetan","name_alt":null,"admin":"Nauru","latitude":-0.494702,"longitude":166.936,"area_sqkm":0.0,"name_zh":"安鄂滩区","name_en":"Anetan"},"geometry":{"type":"Polygon","coordinates":[[[166.93119694447864,-0.493340201200449],[166.938812696,-0.490411065999922],[166.93898665770803,-0.504182967869667],[166.93119694447864,-0.493340201200449]]]}},{"type":"Feature","properties":{"featurecla":"Admin-1 states provinces","name":"Ewa","name_alt":null,"admin":"Nauru","latitude":-0.502076,"longitude":166.934,"area_sqkm":0.0,"name_zh":"埃瓦区","name_en":"Ewa"},"geometry":{"type":"Polygon","coordinates":[[[166.92512624457748,-0.495675085777819],[166.93119694447864,-0.493340201200449],[166.93898665770803,-0.504182967869667],[166.9380477771831,-0.510520413886013],[166.92512624457748,-0.495675085777819]]]}},{"type":"Feature","properties":{"featurecla":"Admin-1 states provinces","name":"Baiti","name_alt":null,"admin":"Nauru","latitude":-0.500672,"longitude":166.925,"area_sqkm":0.0,"name_zh":"白帝区","name_en":"Baiti"},"geometry":{"type":"Polygon","coordinates":[[[166.9180672919389,-0.498390067561887],[166.92512624457748,-0.495675085777819],[166.9380477771831,-0.510520413886013],[166.93758210732835,-0.513663684731284],[166.93723983165285,-0.516515986223794],[166.9180672919389,-0.498390067561887]]]}},{"type":"Feature","properties":{"featurecla":"Admin-1 states provinces","name":"Uaboe","name_alt":null,"admin":"Nauru","latitude":-0.506992,"longitude":166.924,"area_sqkm":0.0,"name_zh":"优雅布区","name_en":"Uaboe"},"geometry":{"type":"Polygon","coordinates":[[[166.913422071,-0.500176690999922],[166.9180672919389,-0.498390067561887],[166.93723983165285,-0.516515986223794],[166.93679786343057,-0.520199054442799],[166.913422071,-0.500176690999922]]]}},{"type":"Feature","properties":{"featurecla":"Admin-1 states provinces","name":"Nibok","name_alt":null,"admin":"Nauru","latitude":-0.512961,"longitude":166.921,"area_sqkm":0.0,"name_zh":"尼柏区","name_en":"Nibok"},"geometry":{"type":"Polygon","coordinates":[[[166.9103115675512,-0.512106850458531],[166.913422071,-0.500176690999922],[166.93679786343057,-0.520199054442799],[166.93652869454354,-0.522442126403007],[166.9361354201135,-0.525195045614851],[166.9284525280617,-0.522793263997926],[166.92037636247903,-0.520686437529093],[166.9103115675512,-0.512106850458531]]]}},{"type":"Feature","properties":{"featurecla":"Admin-1 states provinces","name":"Denigomodu","name_alt":null,"admin":"Nauru","latitude":-0.520335,"longitude":166.914,"area_sqkm":0.0,"name_zh":"德尼高莫都区","name_en":"Denigomodu"},"geometry":{"type":"Polygon","coordinates":[[[166.90699303490055,-0.524834894115088],[166.9103115675512,-0.512106850458531],[166.92037636247903,-0.520686437529093],[166.91686498563047,-0.524197814377658],[166.90699303490055,-0.524834894115088]]]}},{"type":"Feature","properties":{"featurecla":"Admin-1 states provinces","name":"Aiwo","name_alt":null,"admin":"Nauru","latitude":-0.529816,"longitude":166.913,"area_sqkm":0.0,"name_zh":"爱和区","name_en":"Aiwo"},"geometry":{"type":"Polygon","coordinates":[[[166.91199305222304,-0.536965370802374],[166.90699303490055,-0.524834894115088],[166.91686498563047,-0.524197814377658],[166.91616271044063,-0.529113741605897],[166.91791839841528,-0.53508308161895],[166.91199305222304,-0.536965370802374]]]}},{"type":"Feature","properties":{"featurecla":"Admin-1 states provinces","name":"Boe","name_alt":null,"admin":"Nauru","latitude":-0.538594,"longitude":166.916,"area_sqkm":0.0,"name_zh":"泊区","name_en":"Boe"},"geometry":{"type":"Polygon","coordinates":[[[166.9163517587266,-0.547539971692345],[166.91199305222304,-0.536965370802374],[166.91791839841528,-0.53508308161895],[166.92009402481938,-0.538799331224141],[166.91826953601026,-0.540350146442108],[166.9163517587266,-0.547539971692345]]]}},{"type":"Feature","properties":{"featurecla":"Admin-1 states provinces","name":"Yaren","name_alt":null,"admin":"Nauru","latitude":-0.543159,"longitude":166.925,"area_sqkm":0.0,"name_zh":"亚伦区","name_en":"Yaren"},"geometry":{"type":"Polygon","coordinates":[[[166.93264031197612,-0.55066784627264],[166.9163517587266,-0.547539971692345],[166.91826953601026,-0.540350146442108],[166.92009402481938,-0.538799331224141],[166.9252922897074,-0.534380806429056],[166.93264031197612,-0.55066784627264]]]}},{"type":"Feature","properties":{"featurecla":"Admin-1 states provinces","name":"Meneng","name_alt":null,"admin":"Nauru","latitude":-0.539648,"longitude":166.939,"area_sqkm":0.0,"name_zh":"湄泞区","name_en":"Meneng"},"geometry":{"type":"Polygon","coordinates":[[[166.95320459099045,-0.533382909661483],[166.95134524800005,-0.539157809999949],[166.938812696,-0.551853122999944],[166.93264031197612,-0.55066784627264],[166.9252922897074,-0.534380806429056],[166.93547528175884,-0.529816016795735],[166.94530713531594,-0.532273980859543],[166.95320459099045,-0.533382909661483]]]}},{"type":"Feature","properties":{"featurecla":"Admin-1 states provinces","name":"Anibare","name_alt":null,"admin":"Nauru","latitude":-0.519984,"longitude":166.947,"area_sqkm":0.0,"name_zh":"安尼巴惹区","name_en":"Anibare"},"geometry":{"type":"Polygon","coordinates":[[[166.95739737495433,-0.511328701053754],[166.95826256600003,-0.517673434999949],[166.95320459099045,-0.533382909661483],[166.94530713531594,-0.532273980859543],[166.93547528175884,-0.529816016795735],[166.9361354201135,-0.525195045614851],[166.93652869454354,-0.522442126403007],[166.93679786343057,-0.520199054442799],[166.93723983165285,-0.516515986223794],[166.93758210732835,-0.513663684731284],[166.9380477771831,-0.510520413886013],[166.93898665770803,-0.504182967869667],[166.946711686595,-0.508747757503045],[166.95739737495433,-0.511328701053754]]]}},{"type":"Feature","properties":{"featurecla":"Admin-1 states provinces","name":"Ijuw","name_alt":null,"admin":"Nauru","latitude":-0.504534,"longitude":166.951,"area_sqkm":0.0,"name_zh":"艾珠区","name_en":"Ijuw"},"geometry":{"type":"Polygon","coordinates":[[[166.95557701896416,-0.497979424610776],[166.95739737495433,-0.511328701053754],[166.946711686595,-0.508747757503045],[166.93898665770803,-0.504182967869667],[166.95557701896416,-0.497979424610776]]]}},{"type":"Feature","properties":{"featurecla":"Admin-1 states provinces","name":"Anabar","name_alt":null,"admin":"Nauru","latitude":-0.497511,"longitude":166.944,"area_sqkm":0.0,"name_zh":"阿纳巴尔区","name_en":"Anabar"},"geometry":{"type":"Polygon","coordinates":[[[166.938812696,-0.490411065999922],[166.95557701896416,-0.497979424610776],[166.93898665770803,-0.504182967869667],[166.938812696,-0.490411065999922]]]}},{"type":"Feature","properties":{"featurecla":"Admin-1 states provinces","name":"Buada","name_alt":null,"admin":"Nauru","latitude":-0.527877,"longitude":166.925,"area_sqkm":0.0,"name_zh":"部亚达区","name_en":"Buada"},"geometry":{"type":"Polygon","coordinates":[[[166.9361354201135,-0.525195045614851],[166.93547528175884,-0.529816016795735],[166.9252922897074,-0.534380806429056],[166.92009402481938,-0.538799331224141],[166.91791839841528,-0.53508308161895],[166.91616271044063,-0.529113741605897],[166.91686498563047,-0.524197814377658],[166.92037636247903,-0.520686437529093],[166.9284525280617,-0.522793263997926],[166.9361354201135,-0.525195045614851]]]}}]}